[
    {
        "Altitude(m)": 605459.0018980436,
        "Argument of Periapsis(deg)": 0.0,
        "Eccentricity": 0.0,
        "Inclination(deg)": 60.0,
        "Latitude(deg)": 27.988126659900416,
        "Longitude(deg)": -82.20141887456874,
        "Mean Anomaly(deg)": 32.7273,
        "RAAN(deg)": 0.0,
        "Satellite Name": "Test1 2",
        "Satellite Number": 2,
        "Semi-Major Axis(m)": 6980739.136638005,
        "Time(s)": 0
    },
    {
        "Altitude(m)": 605535.7926095906,
        "Argument of Periapsis(deg)": 0.00010418945913296404,
        "Eccentricity": 0.0,
        "Inclination(deg)": 60.0,
        "Latitude(deg)": 28.501256221820547,
        "Longitude(deg)": -81.8444741688635,
        "Mean Anomaly(deg)": 33.347406145461825,
        "RAAN(deg)": -0.0004200491397426661,
        "Satellite Name": "Test1 2",
        "Satellite Number": 2,
        "Semi-Major Axis(m)": 6980739.136638005,
        "Time(s)": 10
    },
    {
        "Altitude(m)": 605614.2739499224,
        "Argument of Periapsis(deg)": 0.0002083789182659281,
        "Eccentricity": 0.0,
        "Inclination(deg)": 60.0,
        "Latitude(deg)": 29.01316826339098,
        "Longitude(deg)": -81.48366464011765,
        "Mean Anomaly(deg)": 33.96751229092366,
        "RAAN(deg)": -0.0008400982794853322,
        "Satellite Name": "Test1 2",
        "Satellite Number": 2,
        "Semi-Major Axis(m)": 6980739.136638005,
        "Time(s)": 20
    },
    {
        "Altitude(m)": 605694.3882270211,
        "Argument of Periapsis(deg)": 0.00031256837739889213,
        "Eccentricity": 0.0,
        "Inclination(deg)": 60.0,
        "Latitude(deg)": 29.52382551178973,
        "Longitude(deg)": -81.11887853272619,
        "Mean Anomaly(deg)": 34.58761843638548,
        "RAAN(deg)": -0.0012601474192279983,
        "Satellite Name": "Test1 2",
        "Satellite Number": 2,
        "Semi-Major Axis(m)": 6980739.136638005,
        "Time(s)": 30
    },
    {
        "Altitude(m)": 605776.0771395141,
        "Argument of Periapsis(deg)": 0.0004167578365318562,
        "Eccentricity": 0.0,
        "Inclination(deg)": 60.0,
        "Latitude(deg)": 30.03318969772701,
        "Longitude(deg)": -80.75000108479131,
        "Mean Anomaly(deg)": 35.20772458184732,
        "RAAN(deg)": -0.0016801965589706644,
        "Satellite Name": "Test1 2",
        "Satellite Number": 2,
        "Semi-Major Axis(m)": 6980739.136638005,
        "Time(s)": 40
    },
    {
        "Altitude(m)": 605859.2818070069,
        "Argument of Periapsis(deg)": 0.0005209472956648203,
        "Eccentricity": 0.0,
        "Inclination(deg)": 60.0,
        "Latitude(deg)": 30.54122151671064,
        "Longitude(deg)": -80.3769154693058,
        "Mean Anomaly(deg)": 35.82783072730915,
        "RAAN(deg)": -0.0021002456987133304,
        "Satellite Name": "Test1 2",
        "Satellite Number": 2,
        "Semi-Major Axis(m)": 6980739.136638005,
        "Time(s)": 50
    },
    {
        "Altitude(m)": 605943.9428006804,
        "Argument of Periapsis(deg)": 0.0006251367547977843,
        "Eccentricity": 0.0,
        "Inclination(deg)": 60.0,
        "Latitude(deg)": 31.047880588954147,
        "Longitude(deg)": -79.9995022222905,
        "Mean Anomaly(deg)": 36.447936872770974,
        "RAAN(deg)": -0.0025202948384559967,
        "Satellite Name": "Test1 2",
        "Satellite Number": 2,
        "Semi-Major Axis(m)": 6980739.136638005,
        "Time(s)": 60
    },
    {
        "Altitude(m)": 606030.0001740903,
        "Argument of Periapsis(deg)": 0.0007293262139307483,
        "Eccentricity": 0.0,
        "Inclination(deg)": 60.0,
        "Latitude(deg)": 31.553125417885987,
        "Longitude(deg)": -79.61763867092,
        "Mean Anomaly(deg)": 37.068043018232814,
        "RAAN(deg)": -0.0029403439781986625,
        "Satellite Name": "Test1 2",
        "Satellite Number": 2,
        "Semi-Major Axis(m)": 6980739.136638005,
        "Time(s)": 70
    },
    {
        "Altitude(m)": 606117.3934941662,
        "Argument of Periapsis(deg)": 0.0008335156730637124,
        "Eccentricity": 0.0,
        "Inclination(deg)": 60.0,
        "Latitude(deg)": 32.05691334722035,
        "Longitude(deg)": -79.23119987469312,
        "Mean Anomaly(deg)": 37.68814916369463,
        "RAAN(deg)": -0.0033603931179413287,
        "Satellite Name": "Test1 2",
        "Satellite Number": 2,
        "Semi-Major Axis(m)": 6980739.136638005,
        "Time(s)": 80
    },
    {
        "Altitude(m)": 606206.0618724092,
        "Argument of Periapsis(deg)": 0.0009377051321966765,
        "Eccentricity": 0.0,
        "Inclination(deg)": 60.0,
        "Latitude(deg)": 32.55920051654982,
        "Longitude(deg)": -78.84005805411304,
        "Mean Anomaly(deg)": 38.30825530915647,
        "RAAN(deg)": -0.003780442257683994,
        "Satellite Name": "Test1 2",
        "Satellite Number": 2,
        "Semi-Major Axis(m)": 6980739.136638005,
        "Time(s)": 90
    },
    {
        "Altitude(m)": 606295.9439962509,
        "Argument of Periapsis(deg)": 0.0010418945913296407,
        "Eccentricity": 0.0,
        "Inclination(deg)": 60.0,
        "Latitude(deg)": 33.05994181542151,
        "Longitude(deg)": -78.44408201998183,
        "Mean Anomaly(deg)": 38.9283614546183,
        "RAAN(deg)": -0.004200491397426661,
        "Satellite Name": "Test1 2",
        "Satellite Number": 2,
        "Semi-Major Axis(m)": 6980739.136638005,
        "Time(s)": 100
    },
    {
        "Altitude(m)": 606386.9781605613,
        "Argument of Periapsis(deg)": 0.0011460840504626045,
        "Eccentricity": 0.0,
        "Inclination(deg)": 60.0,
        "Latitude(deg)": 33.559090835859266,
        "Longitude(deg)": -78.04313811644343,
        "Mean Anomaly(deg)": 39.54846760008012,
        "RAAN(deg)": -0.004620540537169327,
        "Satellite Name": "Test1 2",
        "Satellite Number": 2,
        "Semi-Major Axis(m)": 6980739.136638005,
        "Time(s)": 110
    },
    {
        "Altitude(m)": 606479.1022993202,
        "Argument of Periapsis(deg)": 0.0012502735095955685,
        "Eccentricity": 0.0,
        "Inclination(deg)": 60.0,
        "Latitude(deg)": 34.05659982329661,
        "Longitude(deg)": -77.63708965232351,
        "Mean Anomaly(deg)": 40.16857374554196,
        "RAAN(deg)": -0.005040589676911993,
        "Satellite Name": "Test1 2",
        "Satellite Number": 2,
        "Semi-Major Axis(m)": 6980739.136638005,
        "Time(s)": 120
    },
    {
        "Altitude(m)": 606572.2540173872,
        "Argument of Periapsis(deg)": 0.0013544629687285324,
        "Eccentricity": 0.0,
        "Inclination(deg)": 60.0,
        "Latitude(deg)": 34.552419625886586,
        "Longitude(deg)": -77.2257963339642,
        "Mean Anomaly(deg)": 40.78867989100379,
        "RAAN(deg)": -0.005460638816654658,
        "Satellite Name": "Test1 2",
        "Satellite Number": 2,
        "Semi-Major Axis(m)": 6980739.136638005,
        "Time(s)": 130
    },
    {
        "Altitude(m)": 606666.3706223848,
        "Argument of Periapsis(deg)": 0.0014586524278614966,
        "Eccentricity": 0.0,
        "Inclination(deg)": 60.0,
        "Latitude(deg)": 35.046499642157535,
        "Longitude(deg)": -76.80911521278642,
        "Mean Anomaly(deg)": 41.40878603646562,
        "RAAN(deg)": -0.005880687956397325,
        "Satellite Name": "Test1 2",
        "Satellite Number": 2,
        "Semi-Major Axis(m)": 6980739.136638005,
        "Time(s)": 140
    },
    {
        "Altitude(m)": 606761.3891566676,
        "Argument of Periapsis(deg)": 0.0015628418869944607,
        "Eccentricity": 0.0,
        "Inclination(deg)": 60.0,
        "Latitude(deg)": 35.538787766986765,
        "Longitude(deg)": -76.38690012223833,
        "Mean Anomaly(deg)": 42.02889218192745,
        "RAAN(deg)": -0.006300737096139991,
        "Satellite Name": "Test1 2",
        "Satellite Number": 2,
        "Semi-Major Axis(m)": 6980739.136638005,
        "Time(s)": 150
    },
    {
        "Altitude(m)": 606857.2464294012,
        "Argument of Periapsis(deg)": 0.0016670313461274247,
        "Eccentricity": 0.0,
        "Inclination(deg)": 60.0,
        "Latitude(deg)": 36.02923033586792,
        "Longitude(deg)": -75.95900111744564,
        "Mean Anomaly(deg)": 42.64899832738928,
        "RAAN(deg)": -0.0067207862358826575,
        "Satellite Name": "Test1 2",
        "Satellite Number": 2,
        "Semi-Major Axis(m)": 6980739.136638005,
        "Time(s)": 160
    },
    {
        "Altitude(m)": 606953.8790486464,
        "Argument of Periapsis(deg)": 0.0017712208052603888,
        "Eccentricity": 0.0,
        "Inclination(deg)": 60.0,
        "Latitude(deg)": 36.51777206745115,
        "Longitude(deg)": -75.52526543092497,
        "Mean Anomaly(deg)": 43.26910447285111,
        "RAAN(deg)": -0.007140835375625323,
        "Satellite Name": "Test1 2",
        "Satellite Number": 2,
        "Semi-Major Axis(m)": 6980739.136638005,
        "Time(s)": 170
    },
    {
        "Altitude(m)": 607051.223453528,
        "Argument of Periapsis(deg)": 0.001875410264393353,
        "Eccentricity": 0.0,
        "Inclination(deg)": 60.0,
        "Latitude(deg)": 37.00435600434188,
        "Longitude(deg)": -75.08553691915813,
        "Mean Anomaly(deg)": 43.889210618312944,
        "RAAN(deg)": -0.007560884515367988,
        "Satellite Name": "Test1 2",
        "Satellite Number": 2,
        "Semi-Major Axis(m)": 6980739.136638005,
        "Time(s)": 180
    },
    {
        "Altitude(m)": 607149.2159464131,
        "Argument of Periapsis(deg)": 0.0019795997235263173,
        "Eccentricity": 0.0,
        "Inclination(deg)": 60.0,
        "Latitude(deg)": 37.48892345214801,
        "Longitude(deg)": -74.63965551349249,
        "Mean Anomaly(deg)": 44.50931676377477,
        "RAAN(deg)": -0.007980933655110656,
        "Satellite Name": "Test1 2",
        "Satellite Number": 2,
        "Semi-Major Axis(m)": 6980739.136638005,
        "Time(s)": 190
    }
]